NORAD_CAT_ID,OBJECT_NAME,OBJECT_TYPE,EPOCH,MEAN_MOTION,ECCENTRICITY,INCLINATION,RA_OF_ASC_NODE,ARG_OF_PERICENTER,MEAN_ANOMALY,BSTAR,MEAN_MOTION_DOT,MEAN_MOTION_DDOT,TLE_LINE0,TLE_LINE1,TLE_LINE2,SEMIMAJOR_AXIS,PERIOD,APOGEE,PERIGEE,DECAYED
52856.0,STARLINK-4201,PAYLOAD,2023-08-11 21:13:33,15.08835527,0.0001182,53.2161,287.5588,83.9442,276.1685,1.4217e-05,-6.2e-07,0.0,0 STARLINK-4201,1 52856U 22062AC  23223.88441212 -.00000062  00000-0  14217-4 0  9998,2 52856  53.2161 287.5588 0001182  83.9442 276.1685 15.08835527 64381,6917.894,95.438,540.577,538.941,0.0
52856.0,STARLINK-4201,PAYLOAD,2023-08-12 16:18:10,15.0884648,0.0001091,53.2155,283.9893,83.7076,276.4041,8.9139e-05,1.131e-05,0.0,0 STARLINK-4201,1 52856U 22062AC  23224.67928642  .00001131  00000-0  89139-4 0  9995,2 52856  53.2155 283.9893 0001091  83.7076 276.4041 15.08846480 64506,6917.861,95.437,540.48,538.971,0.0
52856.0,STARLINK-4201,PAYLOAD,2023-08-12 21:04:19,15.08839648,9.79e-05,53.2156,283.0938,77.9377,282.1725,-1.9341e-05,-5.96e-06,0.0,0 STARLINK-4201,1 52856U 22062AC  23224.87800898 -.00000596  00000-0 -19341-4 0  9993,2 52856  53.2156 283.0938 0000979  77.9377 282.1725 15.08839648 64535,6917.881,95.438,540.424,539.069,0.0
52856.0,STARLINK-4201,PAYLOAD,2023-08-13 20:55:06,15.08843602,4.81e-05,53.2157,278.6369,251.7229,108.3711,6.8392e-05,8.01e-06,0.0,0 STARLINK-4201,1 52856U 22062AC  23225.87160291  .00000801  00000-0  68392-4 0  9997,2 52856  53.2157 278.6369 0000481 251.7229 108.3711 15.08843602 64685,6917.869,95.437,540.067,539.402,0.0
52856.0,STARLINK-4201,PAYLOAD,2023-08-14 09:38:12,15.0884387,0.0001092,53.216,276.2557,85.7641,274.3476,7.3073e-05,8.75e-06,0.0,0 STARLINK-4201,1 52856U 22062AC  23226.40153243  .00000875  00000-0  73073-4 0  9999,2 52856  53.2160 276.2557 0001092  85.7641 274.3476 15.08843870 64762,6917.869,95.437,540.489,538.978,0.0
52856.0,STARLINK-4201,PAYLOAD,2023-08-16 09:19:46,15.08841355,0.0001196,53.2159,267.3365,79.6955,280.4172,7.3579e-05,8.83e-06,0.0,0 STARLINK-4201,1 52856U 22062AC  23228.38873415  .00000883  00000-0  73579-4 0  9998,2 52856  53.2159 267.3365 0001196  79.6955 280.4172 15.08841355 65064,6917.876,95.437,540.569,538.914,0.0
52856.0,STARLINK-4201,PAYLOAD,2023-08-17 18:42:52,15.08839867,0.0001235,53.2162,261.0917,93.106,267.0073,7.084e-05,8.4e-06,0.0,0 STARLINK-4201,1 52856U 22062AC  23229.77977424  .00000840  00000-0  70840-4 0  9998,2 52856  53.2162 261.0917 0001235  93.1060 267.0073 15.08839867 65273,6917.881,95.438,540.6,538.891,0.0
52856.0,STARLINK-4201,PAYLOAD,2023-08-19 00:55:12,15.08836073,0.0001318,53.2161,255.4409,100.2498,259.8643,3.3644e-05,2.48e-06,0.0,0 STARLINK-4201,1 52856U 22062AC  23231.03833887  .00000248  00000-0  33644-4 0  9997,2 52856  53.2161 255.4409 0001318 100.2498 259.8643 15.08836073 65461,6917.892,95.438,540.669,538.846,0.0
52856.0,STARLINK-4201,PAYLOAD,2023-08-20 02:21:22,15.08835662,0.0001314,53.2159,250.6826,97.4227,262.6914,5.3962e-05,5.71e-06,0.0,0 STARLINK-4201,1 52856U 22062AC  23232.09818152  .00000571  00000-0  53962-4 0  9996,2 52856  53.2159 250.6826 0001314  97.4227 262.6914 15.08835662 65625,6917.894,95.438,540.668,538.85,0.0
52856.0,STARLINK-4201,PAYLOAD,2023-08-21 08:33:42,15.08843964,0.0001293,53.2158,245.0329,89.6583,270.4557,0.00013151,1.806e-05,0.0,0 STARLINK-4201,1 52856U 22062AC  23233.35673655  .00001806  00000-0  13151-3 0  9990,2 52856  53.2158 245.0329 0001293  89.6583 270.4557 15.08843964 65819,6917.868,95.437,540.628,538.839,0.0
52856.0,STARLINK-4201,PAYLOAD,2023-08-22 00:27:33,15.08840793,0.0001315,53.2159,242.0595,90.0018,270.1125,7.8881e-05,9.68e-06,0.0,0 STARLINK-4201,1 52856U 22062AC  23234.01913979  .00000968  00000-0  78881-4 0  9990,2 52856  53.2159 242.0595 0001315  90.0018 270.1125 15.08840793 65912,6917.878,95.438,540.653,538.833,0.0
52856.0,STARLINK-4201,PAYLOAD,2023-08-23 11:26:02,15.08846619,0.0001361,53.2158,235.5177,88.413,271.7018,4.72e-05,4.63e-06,0.0,0 STARLINK-4201,1 52856U 22062AC  23235.47641521  .00000463  00000-0  47200-4 0  9993,2 52856  53.2158 235.5177 0001361  88.4130 271.7018 15.08846619 66137,6917.86,95.437,540.667,538.784,0.0
52856.0,STARLINK-4201,PAYLOAD,2023-08-24 09:41:26,15.08838003,0.0001531,53.2167,231.3526,98.2144,261.9022,1.1968e-05,-9.8e-07,0.0,0 STARLINK-4201,1 52856U 22062AC  23236.40378173 -.00000098  00000-0  11968-4 0  9994,2 52856  53.2167 231.3526 0001531  98.2144 261.9022 15.08838003 65786,6917.886,95.438,540.811,538.692,0.0
52856.0,STARLINK-4201,PAYLOAD,2023-08-25 09:32:13,15.08839184,0.0001543,53.2168,226.8913,106.0902,254.026,2.5614e-05,1.2e-06,0.0,0 STARLINK-4201,1 52856U 22062AC  23237.39738107  .00000120  00000-0  25614-4 0  9998,2 52856  53.2168 226.8913 0001543 106.0902 254.0260 15.08839184 65934,6917.883,95.438,540.815,538.68,0.0
52856.0,STARLINK-4201,PAYLOAD,2023-08-25 23:50:42,15.08835522,0.0001459,53.2166,224.2154,101.7721,258.3435,5.6568e-05,6.12e-06,0.0,0 STARLINK-4201,1 52856U 22062AC  23237.99354405  .00000612  00000-0  56568-4 0  9997,2 52856  53.2166 224.2154 0001459 101.7721 258.3435 15.08835522 66516,6917.894,95.438,540.768,538.75,0.0
52856.0,STARLINK-4201,PAYLOAD,2023-08-26 07:47:37,15.0883853,0.0001386,53.2165,222.7294,94.6419,265.4732,5.8091e-05,6.37e-06,0.0,0 STARLINK-4201,1 52856U 22062AC  23238.32474338  .00000637  00000-0  58091-4 0  9993,2 52856  53.2165 222.7294 0001386  94.6419 265.4732 15.08838530 66078,6917.885,95.438,540.709,538.791,0.0
52856.0,STARLINK-4201,PAYLOAD,2023-08-27 09:13:47,15.08843022,0.0001399,53.2165,217.972,92.2203,267.8949,8.7371e-05,1.103e-05,0.0,0 STARLINK-4201,1 52856U 22062AC  23239.38458138  .00001103  00000-0  87371-4 0  9992,2 52856  53.2165 217.9720 0001399  92.2203 267.8949 15.08843022 66727,6917.871,95.437,540.704,538.768,0.0
52856.0,STARLINK-4201,PAYLOAD,2023-08-28 07:29:14,15.08820801,0.0001257,53.2171,213.806,93.8702,266.2434,-0.00010617,-1.976e-05,0.0,0 STARLINK-4201,1 52856U 22062AC  23240.31197006 -.00001976  00000-0 -10617-3 0  9999,2 52856  53.2171 213.8060 0001257  93.8702 266.2434 15.08820801 66867,6917.939,95.439,540.674,538.934,0.0
52856.0,STARLINK-4201,PAYLOAD,2023-08-28 15:26:09,15.08826585,0.0001301,53.2177,212.3187,89.0918,271.0223,-3.3042e-05,-8.13e-06,0.0,0 STARLINK-4201,1 52856U 22062AC  23240.64316758 -.00000813  00000-0 -33042-4 0  9999,2 52856  53.2177 212.3187 0001301  89.0918 271.0223 15.08826585 66914,6917.921,95.438,540.686,538.886,0.0
52856.0,STARLINK-4201,PAYLOAD,2023-08-29 07:20:00,15.08843685,0.0001481,53.217,209.3484,112.2824,247.8325,0.00010412,1.37e-05,0.0,0 STARLINK-4201,1 52856U 22062AC  23241.30555603  .00001370  00000-0  10412-3 0  9999,2 52856  53.2170 209.3484 0001481 112.2824 247.8325 15.08843685 67013,6917.869,95.437,540.759,538.71,0.0
52856.0,STARLINK-4201,PAYLOAD,2023-08-30 15:07:42,15.08848363,0.0001174,53.2165,203.4016,91.2065,268.9062,0.00028548,4.259e-05,0.0,0 STARLINK-4201,1 52856U 22062AC  23242.63035558  .00004259  00000-0  28548-3 0  9996,2 52856  53.2165 203.4016 0001174  91.2065 268.9062 15.08848363 67217,6917.855,95.437,540.532,538.908,0.0
52856.0,STARLINK-4201,PAYLOAD,2023-08-31 07:01:33,15.08850439,0.0001576,53.2166,200.428,92.6188,267.4984,4.6625e-05,4.54e-06,0.0,0 STARLINK-4201,1 52856U 22062AC  23243.29275198  .00000454  00000-0  46625-4 0  9995,2 52856  53.2166 200.4280 0001576  92.6188 267.4984 15.08850439 66825,6917.848,95.437,540.804,538.623,0.0
52856.0,STARLINK-4201,PAYLOAD,2023-09-01 03:41:35,15.08817078,4.07e-05,53.2165,196.5658,19.1706,340.9301,-0.00048864,-8.051e-05,0.0,0 STARLINK-4201,1 52856U 22062AC  23244.15388363 -.00008051  00000-0 -48864-3 0  9999,2 52856  53.2165 196.5658 0000407  19.1706 340.9301 15.08817078 67441,6917.95,95.439,540.097,539.534,0.0
52856.0,STARLINK-4201,PAYLOAD,2023-09-01 05:16:53,15.08935612,2.29e-05,53.2165,196.269,35.8282,324.2726,0.00032357,4.879e-05,0.0,0 STARLINK-4201,1 52856U 22062AC  23244.22006411  .00004879  00000-0  32357-3 0  9990,2 52856  53.2165 196.2690 0000229  35.8282 324.2726 15.08935612 67452,6917.588,95.432,539.612,539.295,0.0
52856.0,STARLINK-4201,PAYLOAD,2023-09-01 21:10:50,15.08811954,0.0001761,53.2229,193.2964,265.2158,94.8633,0.0019862,0.0003144,0.0,0 STARLINK-4201,1 52856U 22062AC  23244.88252876  .00031440  00000-0  19862-2 0  9999,2 52856  53.2229 193.2964 0001761 265.2158  94.8633 15.08811954 67557,6917.966,95.439,541.049,538.613,0.0
52856.0,STARLINK-4201,PAYLOAD,2023-09-02 05:07:44,15.08853463,0.0001627,53.2148,191.8047,92.8441,267.2738,0.0003451,5.211e-05,0.0,0 STARLINK-4201,1 52856U 22062AC  23245.21370689  .00005211  00000-0  34510-3 0  9995,2 52856  53.2148 191.8047 0001627  92.8441 267.2738 15.08853463 67602,6917.839,95.437,540.83,538.579,0.0
52856.0,STARLINK-4201,PAYLOAD,2023-09-02 21:01:35,15.08844547,0.0001626,53.2164,188.8305,99.6674,260.4502,0.00011833,1.596e-05,0.0,0 STARLINK-4201,1 52856U 22062AC  23245.87611020  .00001596  00000-0  11833-3 0  9999,2 52856  53.2164 188.8305 0001626  99.6674 260.4502 15.08844547 67219,6917.866,95.437,540.856,538.607,0.0
52856.0,STARLINK-4201,PAYLOAD,2023-09-03 00:12:22,15.08840442,0.0001499,53.2173,188.2363,100.6651,259.451,2.2726e-05,7.4e-07,0.0,0 STARLINK-4201,1 52856U 22062AC  23246.00859104  .00000074  00000-0  22726-4 0  9996,2 52856  53.2173 188.2363 0001499 100.6651 259.4510 15.08840442 67726,6917.879,95.438,540.781,538.707,0.0
52856.0,STARLINK-4201,PAYLOAD,2023-09-03 12:55:27,15.08840174,0.0001293,53.2163,185.8589,89.2957,270.8183,4.6212e-05,4.48e-06,0.0,0 STARLINK-4201,1 52856U 22062AC  23246.53851233  .00000448  00000-0  46212-4 0  9990,2 52856  53.2163 185.8589 0001293  89.2957 270.8183 15.08840174 67311,6917.88,95.438,540.639,538.85,0.0
52856.0,STARLINK-4201,PAYLOAD,2023-09-04 00:03:09,15.08829014,0.000162,53.2177,183.779,94.6708,265.4469,-0.00012866,-2.334e-05,0.0,0 STARLINK-4201,1 52856U 22062AC  23247.00219878 -.00002334  00000-0 -12866-3 0  9991,2 52856  53.2177 183.7790 0001620  94.6708 265.4469 15.08829014 67873,6917.914,95.438,540.9,538.658,0.0
